ALOS-2                  
1 39766U 14029A   26076.83448551  .00001731  00000+0  23829-3 0  9994
2 39766  97.9193 175.3134 0001456  92.6159 267.5220 14.79537274638070
YAOGAN-29               
1 41038U 15069A   26076.89110905  .00000250  00000+0  37383-4 0  9995
2 41038  98.0135 105.3422 0001340  22.5300 337.5972 14.83003658557091
ASTRO-H (HITOMI)        
1 41337U 16012A   26076.83068632  .00002469  00000+0  14225-3 0  9992
2 41337  30.9997 304.0110 0009639  52.6877 307.4638 15.10059012553466
HXMT (HUIYAN)           
1 42758U 17034A   26076.87349536  .00004304  00000+0  21917-3 0  9990
2 42758  43.0156 331.1723 0033147 285.7188  74.0005 15.17578693483782
SAOCOM 1A               
1 43641U 18076A   26076.79426781  .00000306  00000+0  45034-4 0  9993
2 43641  97.8894 264.8524 0001435  84.9938 275.1439 14.82148752402560
H-2A R/B                
1 43682U 18084L   26076.84669789  .00014309  00000+0  33790-3 0  9993
2 43682  98.8722 295.9805 0024767 357.3531   2.7576 15.41695729407032
SAOCOM 1B               
1 46265U 20059A   26073.04490030  .00000161  00000+0  26755-4 0  9993
2 46265  97.8899 260.2532 0001383  84.3427 275.7944 14.82151938299390
CSS (TIANHE)            
1 48274U 21035A   26076.58544780  .00021250  00000+0  24801-3 0  9995
2 48274  41.4671 160.1044 0006145 321.5629  38.4771 15.61097750278840
COSMOS 2550             
1 48865U 21056A   26076.14655870 -.00000204  00000+0 -37996-6 0  9999
2 48865  67.1448  18.3252 0008297 268.8880  91.1323 15.33878800264600
CZ-2C R/B               
1 52794U 22058K   26075.90461186  .00031172  00000+0  44728-3 0  9990
2 52794  50.1879 281.1612 0041966 231.5981 128.1218 15.54771257211253
CZ-2C R/B               
1 54039U 22132E   26076.76269701  .00035274  00000+0  39166-3 0  9998
2 54039  97.2954  80.3290 0019825  65.9222 294.4107 15.62599279191634
GSLV R/B                
1 54149U 22138AN  26076.20850182  .00001917  00000+0  16397-3 0  9992
2 54149  87.3883 163.8462 0023762 121.7083 238.6470 14.96829228185054
